{
    "links": {
        "self": "http://www.neowsapp.com/rest/v1/neo/3802590?api_key=iIulBulltgU6a56xZRHN4H3l9WmuAYTsLGpBGhQ2"
    },
    "id": "3802590",
    "neo_reference_id": "3802590",
    "name": "(2018 GQ4)",
    "designation": "2018 GQ4",
    "nasa_jpl_url": "http://ssd.jpl.nasa.gov/sbdb.cgi?sstr=3802590",
    "absolute_magnitude_h": 24.1,
    "estimated_diameter": {
        "kilometers": {
            "estimated_diameter_min": 0.040230458,
            "estimated_diameter_max": 0.0899580388
        },
        "meters": {
            "estimated_diameter_min": 40.2304579834,
            "estimated_diameter_max": 89.9580388169
        },
        "miles": {
            "estimated_diameter_min": 0.0249980399,
            "estimated_diameter_max": 0.0558973165
        },
        "feet": {
            "estimated_diameter_min": 131.9896957704,
            "estimated_diameter_max": 295.1379320721
        }
    },
    "is_potentially_hazardous_asteroid": false,
    "close_approach_data": [
        {
            "close_approach_date": "2018-04-12",
            "close_approach_date_full": "2018-Apr-12 14:39",
            "epoch_date_close_approach": 1523543940000,
            "relative_velocity": {
                "kilometers_per_second": "14.7591505387",
                "kilometers_per_hour": "53132.9419392185",
                "miles_per_hour": "33014.7438399549"
            },
            "miss_distance": {
                "astronomical": "0.1709732184",
                "lunar": "66.5085819576",
                "kilometers": "25577229.299684808",
                "miles": "15892953.3207860304"
            },
            "orbiting_body": "Earth"
        }
    ],
    "orbital_data": {
        "orbit_id": "1",
        "orbit_determination_date": "2018-04-15 10:12:09",
        "first_observation_date": "2018-04-12",
        "last_observation_date": "2018-04-14",
        "data_arc_in_days": 2,
        "observations_used": 14,
        "orbit_uncertainty": "9",
        "minimum_orbit_intersection": ".16582",
        "jupiter_tisserand_invariant": "4.678",
        "epoch_osculation": "2458221.5",
        "eccentricity": ".1717531645092247",
        "semi_major_axis": "1.374009856557228",
        "inclination": "28.31017876972971",
        "ascending_node_longitude": "24.84430455586389",
        "orbital_period": "588.2788017359295",
        "perihelion_distance": "1.138019315626658",
        "perihelion_argument": "143.6954804622519",
        "aphelion_distance": "1.610000397487798",
        "perihelion_time": "2458185.108043404537",
        "mean_anomaly": "22.27023026447176",
        "mean_motion": ".6119547380216483",
        "equinox": "J2000",
        "orbit_class": {
            "orbit_class_type": "AMO",
            "orbit_class_description": "Near-Earth asteroid orbits similar to that of 1221 Amor",
            "orbit_class_range": "1.017 AU < q (perihelion) < 1.3 AU"
        }
    },
    "is_sentry_object": false
}